{
  "type": "FeatureCollection",
  "features": [
    {
      "type": "Feature",
      "properties": {},
      "geometry": {
        "coordinates": [
          [
            [2.4260991199582804, 48.86323305549118],
            [2.4262445559320724, 48.863169235685916],
            [2.4297064676431432, 48.863715571551865],
            [2.431222375337839, 48.863866152950536],
            [2.4328404378766493, 48.86395699866415],
            [2.4351109657651904, 48.863926294022306],
            [2.436009150962718, 48.86399272552504],
            [2.4347620959736958, 48.86609904556366],
            [2.433967893001693, 48.867756341309445],
            [2.432722140179436, 48.869278163593094],
            [2.4315316328777214, 48.86889795332641],
            [2.4303196168796433, 48.86853189114123],
            [2.429763477227368, 48.868122168199534],
            [2.428735177904912, 48.86833724914521],
            [2.428297952265524, 48.86843935877718],
            [2.42966916674294, 48.869775941833666],
            [2.430153998981737, 48.8704124242483],
            [2.430844145472747, 48.87097272595756],
            [2.4322994740437878, 48.871619338268886],
            [2.43379987948299, 48.87376446577841],
            [2.4344146195838334, 48.87424580513047],
            [2.4359661065039973, 48.87474639314371],
            [2.4362588398847436, 48.87480415297671],
            [2.4366872489170532, 48.876471014738485],
            [2.4349676324895313, 48.87673855420718],
            [2.4351155564838223, 48.87724930740086],
            [2.434745746499061, 48.87733443242604],
            [2.435023103987646, 48.87806406955818],
            [2.4342280125210607, 48.87831944004017],
            [2.433839712037212, 48.876908805850945],
            [2.434671784501944, 48.87679935843235],
            [2.43271179158495, 48.87399012606079],
            [2.4310846276536324, 48.87468332792977],
            [2.4303986227276084, 48.87309396190915],
            [2.428815782382401, 48.87340720625926],
            [2.426851221126526, 48.87401928614389],
            [2.4253557200594287, 48.8747493877577],
            [2.424692765978989, 48.87232581499222],
            [2.423559258238214, 48.86969167293978],
            [2.4228152537812946, 48.86991290201826],
            [2.4224789230005683, 48.86932295563534],
            [2.4233859969259015, 48.86908161192861],
            [2.426851223161975, 48.868652553575174],
            [2.426563300859499, 48.86758006517391],
            [2.428020259870266, 48.866507956546485],
            [2.4266201476431775, 48.86589115983111],
            [2.4252883209152287, 48.865470984190154],
            [2.4260991199582804, 48.86323305549118]
          ]
        ],
        "type": "Polygon"
      }
    },
    {
      "type": "Feature",
      "properties": {},
      "geometry": {
        "coordinates": [
          [
            [1.402893464140817, 43.56382970633439],
            [1.4034783349929398, 43.564364062444525],
            [1.4040377766773418, 43.56541433477767],
            [1.4063009725819597, 43.56604080429253],
            [1.407114705941325, 43.567385849180965],
            [1.4078012934631943, 43.568214971477715],
            [1.4086913143247273, 43.57077596605478],
            [1.4086212400850968, 43.571245311044834],
            [1.4056154672184107, 43.57377788427016],
            [1.404680337882354, 43.57414888923847],
            [1.403210848924516, 43.574342456140926],
            [1.397177038207417, 43.57439084776911],
            [1.3960637889965142, 43.57427793390892],
            [1.3923455366359008, 43.57156793775752],
            [1.391009637582897, 43.57053552619405],
            [1.3909428426304942, 43.56971281055948],
            [1.3912545524100608, 43.569309514476714],
            [1.3921896817461459, 43.56879329155106],
            [1.393711013102859, 43.566247591339646],
            [1.3938182071720746, 43.565523283543854],
            [1.3909612396172122, 43.56208235143356],
            [1.3908182018796538, 43.56179767337889],
            [1.3942103591371335, 43.56021962256443],
            [1.3960434640316919, 43.559528433103566],
            [1.4020357758969624, 43.55812806302106],
            [1.4038263779634121, 43.55982391988016],
            [1.405085118030513, 43.56085168868597],
            [1.4074784970300698, 43.56276586135087],
            [1.4034461574754857, 43.56369191684601],
            [1.402893464140817, 43.56382970633439]
          ]
        ],
        "type": "Polygon"
      }
    }
  ]
}
